[["observe", {"vessel_name": "#autoLOC_501232", "vessel_type": "VesselSituation.landed", "vessel_situation": "VesselSituation.landed", "mission_time": 1762052565.0624058, "universal_time": 26588.273969727816, "current_body": "Mun", "position": {"x": 0.0, "y": 0.0, "z": 0.0}, "velocity": {"x": 0.0, "y": 0.0, "z": 0.0}, "altitude": 2745.62422522853, "surface_altitude": 3.1492833920638077, "speed": 0.0, "vertical_speed": 0, "g_force": 0, "orbit_parameters": {"apoapsis_altitude": 2745.641201816965, "periapsis_altitude": -199971.81204418073, "inclination": 0.023408739746834443, "eccentricity": 0.9997219763917625, "period": 0, "time_to_apoapsis": 0, "time_to_periapsis": 0}, "resources": {"LiquidFuel": {"amount": 377.3498229980469, "max": 720.0}, "ElectricCharge": {"amount": 950.0, "max": 950.0}}, "vessel_status": {"mass": 11437.76953125, "dry_mass": 0, "thrust": 0.0, "available_thrust": 249999.984375, "max_thrust": 249999.984375, "specific_impulse": 0, "control_state": {"throttle": 0.0, "sas": false, "rcs": false, "gear": false, "lights": false, "brakes": false}}, "mechjeb_status": {"api_ready": true, "ascent_status": "Off"}, "part_status": {"part_count": 17, "stage_count": 0, "current_stage": 2}, "nearby_vessels": [], "comprehensive_telemetry": {"timestamp": 1762052565.271314, "basic_vessel": {"name": "#autoLOC_501232", "type": "VesselType.ship", "situation": "VesselSituation.landed", "mass": 11437.76953125, "dry_mass": 6724.99951171875, "crew_count": 3, "crew_capacity": 3, "biome": "Midlands", "recoverable": false, "met": 26551.573969727815}, "performance": {"thrust": 0.0, "max_thrust": 249999.984375, "max_vacuum_thrust": 250000.0, "specific_impulse": 350.0, "kerbin_sea_level_specific_impulse": 90.0, "vacuum_specific_impulse": 350.0}, "torque": {"available_control_surface_torque": [[0.0, 0.0, 0.0], [0.0, 0.0, 0.0]], "available_engine_torque": [[0.0, 0.0, 0.0], [0.0, 0.0, 0.0]], "available_rcs_torque": [[0.0, 0.0, 0.0], [0.0, 0.0, 0.0]], "available_reaction_wheel_torque": [[15000.0, 15000.0, 15000.0], [-15000.0, -15000.0, -15000.0]], "available_thrust": 249999.984375, "available_torque": [[15000.0, 15000.0, 15000.0], [-15000.0, -15000.0, -15000.0]]}, "position_velocity": {"position_vessel": [0.0, 0.0, -0.0], "velocity_vessel": [0.0, 0.0, 0.0], "position_orbital": [0.0, 0.0, 0.0], "velocity_orbital": [0.0, 0.0, 0.0], "position_surface": [0.0, 0.0, 0.0], "velocity_surface": [0.0, 0.0, 0.0], "speed": 0.0, "horizontal_speed": 0.0, "vertical_speed": 0.0, "equivalent_air_speed": 0.0, "true_air_speed": 0.3710310459136963, "terminal_velocity": Infinity}, "altitude_location": {"mean_altitude": 2745.603597328969, "surface_altitude": 3.128906072321115, "bedrock_altitude": 3.128906072321115, "latitude": -0.5425863522379883, "longitude": -22.371847420805807, "elevation": 2742.474691256648}, "aerodynamics": {"atmosphere_density": 0.0, "dynamic_pressure": 0.0, "static_pressure": 0.0, "static_pressure_at_msl": 101325.0, "drag": [-2.242248665224131e-08, -2.5240044515244977e-08, 3.54192857356444e-08], "lift": [-3.297125849460905e-07, 1.8294089691422406e-07, -7.836238353227595e-08], "mach": 0.0, "drag_coefficient": null, "lift_coefficient": null, "ballistic_coefficient": null, "reynolds_number": null}, "orientation": {"heading": 124.24102020263672, "pitch": 72.86434936523438, "roll": -59.6453857421875, "direction": [0.9559360245883477, -0.16519109243129812, 0.24268955452507668], "rotation": [0.6133356471573895, 0.40855854433451005, -0.4543291209633432, 0.500484235342772], "angle_of_attack": 29.435985565185547, "sideslip_angle": -48.10127258300781}, "flight_dynamics": {"g_force": 0.16395163536071777, "center_of_mass": [0.0, 0.0, 0.0], "aerodynamic_force": [-1.2116746209212682e-06, 3.7374623537556744e-07, -4.2636089074162167e-07], "thrust_specific_fuel_consumption": null, "stall_fraction": null}, "reference_vectors": {"prograde": [-0.01735342480794061, -0.019577735618151994, 0.999657726882307], "retrograde": [0.01735342480794061, 0.019577735618151994, -0.999657726882307], "normal": [1.1086270790272579e-13, 0.9998082800264809, 0.0195806841169988], "anti_normal": [-1.1086270790272579e-13, -0.9998082800264809, -0.0195806841169988], "radial": [0.9998494179862463, -0.0003397919296231998, 0.017350097809793796], "anti_radial": [-0.9998494179862463, 0.0003397919296231998, -0.017350097809793796]}, "reference_frames": {"reference_frames": {"vessel": {"position": [0.0, 0.0, -0.0], "velocity": [0.0, 0.0, 0.0], "description": "Vessel-relative coordinates (X=right, Y=forward, Z=up)"}, "orbital": {"position": [0.0, 0.0, 0.0], "velocity": [0.0, 0.0, 0.0], "description": "Orbital coordinates (X=anti-radial, Y=prograde, Z=normal)"}, "surface": {"position": [0.0, 0.0, 0.0], "velocity": [0.0, 0.0, 0.0], "description": "Surface coordinates (X=zenith, Y=north, Z=east)"}}, "coordinate_systems": {"vessel_available": true, "orbital_available": true, "surface_available": true}}, "orbital": {"semi_major_axis": 101386.81132681173, "semi_minor_axis": 2383.6375074336893, "eccentricity": 0.9997235939647161, "inclination": 0.02141819171525146, "longitude_of_ascending_node": 1.2262788429243199, "argument_of_periapsis": 0.4580176185333255, "mean_anomaly": 3.142392079442284, "eccentric_anomaly": -3.1411928854391533, "true_anomaly": -3.141587954879711, "apoapsis": 202745.5953440464, "periapsis": 28.00866005547569, "apoapsis_altitude": 2745.5953440463927, "periapsis_altitude": -199971.99133994454, "period": 794.7553681480321, "orbital_speed": 803.6601261600254, "speed": 9.422389815119528, "radius": 202745.5872447403, "time_to_apoapsis": 794.6552734451438, "time_to_periapsis": 397.27764477327526, "time_to_soi_change": NaN, "epoch": 26588.47396972782, "mean_anomaly_at_epoch": 3.142383107451899, "body_name": "Mun"}, "control": {"pitch": 0.0, "yaw": 0.0, "roll": 0.0, "throttle": 0.0, "forward": -0.0, "up": 0.0, "right": -0.0, "sas": false, "rcs": false, "brakes": false, "gear": false, "lights": false, "abort": false, "custom_axis01": 0.0, "custom_axis02": 0.0, "custom_axis03": 0.0, "custom_axis04": 0.0, "wheel_steering": 0.0, "wheel_throttle": 0.0, "state": "ControlState.full", "source": "ControlSource.kerbal", "current_stage": 2, "stage_lock": false, "sas_mode": "SASMode.stability_assist", "input_mode": "ControlInputMode.additive"}, "resources": {"ElectricCharge": {"amount": 950.0, "max": 950.0, "flow_mode": null, "density": null}, "MonoPropellant": {"amount": 30.0, "max": 30.0, "flow_mode": null, "density": null}, "Ablator": {"amount": 399.9942932128906, "max": 800.0, "flow_mode": null, "density": null}, "LiquidFuel": {"amount": 377.3498229980469, "max": 720.0, "flow_mode": null, "density": null}, "Oxidizer": {"amount": 461.205322265625, "max": 880.0, "flow_mode": null, "density": null}}}, "execution_time": 1417.711264848709}]]